{"type": "FeatureCollection", "features": [ {"type": "Feature", "properties": {"norad_id": 60453, "name": "LEGION 4", "group": "resource", "lat": 44.620023510567854, "lon": 149.35366044309023, "alt_km": 518.2210795207675, "timestamp": "2025-12-07T16:44:03.568840+00:00", "meta": {"OBJECT_NAME": "LEGION 4", "OBJECT_ID": "2024-146B", "EPOCH": "2025-12-06T18:13:27.566112", "MEAN_MOTION": 15.15731499, "ECCENTRICITY": 0.00099106, "INCLINATION": 45.0391, "RA_OF_ASC_NODE": 73.9235, "ARG_OF_PERICENTER": 279.811, "MEAN_ANOMALY": 80.165, "EPHEMERIS_TYPE": 0, "CLASSIFICATION_TYPE": "U", "NORAD_CAT_ID": 60453, "ELEMENT_SET_NO": 999, "REV_AT_EPOCH": 7167, "BSTAR": 0.00048560368, "MEAN_MOTION_DOT": 9.171e-05, "MEAN_MOTION_DDOT": 0}, "tle": {"line1": "1 60453U 24146B   25340.75934683  .00009171  00000+0  48560-3 0  9997", "line2": "2 60453  45.0391  73.9235 0009910 279.8110  80.1650 15.15731499 71674"}}, "geometry": {"type": "Point", "coordinates": [149.35366044309023, 44.620023510567854]}}, {"type": "Feature", "properties": {"norad_id": 60989, "name": "SENTINEL-2C", "group": "resource", "lat": -34.76270186871324, "lon": 60.25875411193138, "alt_km": 795.7674760183136, "timestamp": "2025-12-07T16:44:03.568850+00:00", "meta": {"OBJECT_NAME": "SENTINEL-2C", "OBJECT_ID": "2024-157A", "EPOCH": "2025-12-06T22:26:13.184448", "MEAN_MOTION": 14.30813962, "ECCENTRICITY": 0.00011615, "INCLINATION": 98.5687, "RA_OF_ASC_NODE": 53.5007, "ARG_OF_PERICENTER": 98.9112, "MEAN_ANOMALY": 261.2203, "EPHEMERIS_TYPE": 0, "CLASSIFICATION_TYPE": "U", "NORAD_CAT_ID": 60989, "ELEMENT_SET_NO": 999, "REV_AT_EPOCH": 6549, "BSTAR": 0.00013396443, "MEAN_MOTION_DOT": 3.08e-06, "MEAN_MOTION_DDOT": 0}, "tle": {"line1": "1 60989U 24157A   25340.93487482  .00000308  00000+0  13396-3 0  9995", "line2": "2 60989  98.5687  53.5007 0001161  98.9112 261.2203 14.30813962 65493"}}, "geometry": {"type": "Point", "coordinates": [60.25875411193138, -34.76270186871324]}}, {"type": "Feature", "properties": {"norad_id": 61735, "name": "IONOSFERA-M 1", "group": "resource", "lat": 17.7675595617888, "lon": -151.2423137436863, "alt_km": 815.6666360157506, "timestamp": "2025-12-07T16:44:03.568860+00:00", "meta": {"OBJECT_NAME": "IONOSFERA-M 1", "OBJECT_ID": "2024-199A", "EPOCH": "2025-12-06T22:05:00.553056", "MEAN_MOTION": 14.22712035, "ECCENTRICITY": 0.00012388, "INCLINATION": 98.7415, "RA_OF_ASC_NODE": 210.8128, "ARG_OF_PERICENTER": 30.2535, "MEAN_ANOMALY": 329.8714, "EPHEMERIS_TYPE": 0, "CLASSIFICATION_TYPE": "U", "NORAD_CAT_ID": 61735, "ELEMENT_SET_NO": 999, "REV_AT_EPOCH": 10036, "BSTAR": 8.7467578e-05, "MEAN_MOTION_DOT": 1.52e-06, "MEAN_MOTION_DDOT": 0}, "tle": {"line1": "1 61735U 24199A   25340.92014529  .00000152  00000+0  87468-4 0  9997", "line2": "2 61735  98.7415 210.8128 0001238  30.2535 329.8714 14.22712035100363"}}, "geometry": {"type": "Point", "coordinates": [-151.2423137436863, 17.7675595617888]}}, {"type": "Feature", "properties": {"norad_id": 61736, "name": "IONOSFERA-M 2", "group": "resource", "lat": -20.596680544749052, "lon": 28.181561276971347, "alt_km": 821.269891584253, "timestamp": "2025-12-07T16:44:03.568870+00:00", "meta": {"OBJECT_NAME": "IONOSFERA-M 2", "OBJECT_ID": "2024-199B", "EPOCH": "2025-12-06T22:54:54.655200", "MEAN_MOTION": 14.22714186, "ECCENTRICITY": 0.000149, "INCLINATION": 98.7413, "RA_OF_ASC_NODE": 210.7598, "ARG_OF_PERICENTER": 117.6144, "MEAN_ANOMALY": 242.5185, "EPHEMERIS_TYPE": 0, "CLASSIFICATION_TYPE": "U", "NORAD_CAT_ID": 61736, "ELEMENT_SET_NO": 999, "REV_AT_EPOCH": 10349, "BSTAR": 8.7900097e-05, "MEAN_MOTION_DOT": 1.53e-06, "MEAN_MOTION_DDOT": 0}, "tle": {"line1": "1 61736U 24199B   25340.95479925  .00000153  00000+0  87900-4 0  9998", "line2": "2 61736  98.7413 210.7598 0001490 117.6144 242.5185 14.22714186103497"}}, "geometry": {"type": "Point", "coordinates": [28.181561276971347, -20.596680544749052]}}, {"type": "Feature", "properties": {"norad_id": 63772, "name": "BIOMASS", "group": "resource", "lat": -58.47531539080516, "lon": -179.84463360351245, "alt_km": 676.4957807474393, "timestamp": "2025-12-07T16:44:03.568880+00:00", "meta": {"OBJECT_NAME": "BIOMASS", "OBJECT_ID": "2025-090A", "EPOCH": "2025-12-06T11:32:58.794720", "MEAN_MOTION": 14.67526401, "ECCENTRICITY": 0.00011513, "INCLINATION": 98.0712, "RA_OF_ASC_NODE": 165.5814, "ARG_OF_PERICENTER": 62.7963, "MEAN_ANOMALY": 297.3359, "EPHEMERIS_TYPE": 0, "CLASSIFICATION_TYPE": "U", "NORAD_CAT_ID": 63772, "ELEMENT_SET_NO": 999, "REV_AT_EPOCH": 3242, "BSTAR": -0.00051875312, "MEAN_MOTION_DOT": -2.987e-05, "MEAN_MOTION_DDOT": 0}, "tle": {"line1": "1 63772U 25090A   25340.48123605 -.00002987  00000+0 -51875-3 0  9990", "line2": "2 63772  98.0712 165.5814 0001151  62.7963 297.3359 14.67526401 32420"}}, "geometry": {"type": "Point", "coordinates": [-179.84463360351245, -58.47531539080516]}}, {"type": "Feature", "properties": {"norad_id": 64694, "name": "GOSAT-GW (IBUKI GW)", "group": "resource", "lat": 29.75281120569449, "lon": 101.93704165341332, "alt_km": 667.0038361484749, "timestamp": "2025-12-07T16:44:03.568891+00:00", "meta": {"OBJECT_NAME": "GOSAT-GW (IBUKI GW)", "OBJECT_ID": "2025-141A", "EPOCH": "2025-12-06T22:03:15.010272", "MEAN_MOTION": 14.67557661, "ECCENTRICITY": 0.00015103, "INCLINATION": 98.0423, "RA_OF_ASC_NODE": 276.5373, "ARG_OF_PERICENTER": 83.2673, "MEAN_ANOMALY": 276.8703, "EPHEMERIS_TYPE": 0, "CLASSIFICATION_TYPE": "U", "NORAD_CAT_ID": 64694, "ELEMENT_SET_NO": 999, "REV_AT_EPOCH": 2364, "BSTAR": 0.00036117028, "MEAN_MOTION_DOT": 2.002e-05, "MEAN_MOTION_DDOT": 0}, "tle": {"line1": "1 64694U 25141A   25340.91892373  .00002002  00000+0  36117-3 0  9992", "line2": "2 64694  98.0423 276.5373 0001510  83.2673 276.8703 14.67557661 23642"}}, "geometry": {"type": "Point", "coordinates": [101.93704165341332, 29.75281120569449]}}, {"type": "Feature", "properties": {"norad_id": 64876, "name": "IONOSFERA-M 3", "group": "resource", "lat": -81.2233403803071, "lon": 45.857181970064445, "alt_km": 829.4003962071274, "timestamp": "2025-12-07T16:44:03.568913+00:00", "meta": {"OBJECT_NAME": "IONOSFERA-M 3", "OBJECT_ID": "2025-155A", "EPOCH": "2025-12-06T22:34:57.713664", "MEAN_MOTION": 14.21438785, "ECCENTRICITY": 0.00023482, "INCLINATION": 98.5776, "RA_OF_ASC_NODE": 302.9714, "ARG_OF_PERICENTER": 69.1102, "MEAN_ANOMALY": 291.0327, "EPHEMERIS_TYPE": 0, "CLASSIFICATION_TYPE": "U", "NORAD_CAT_ID": 64876, "ELEMENT_SET_NO": 999, "REV_AT_EPOCH": 1909, "BSTAR": 9.320005e-05, "MEAN_MOTION_DOT": 1.61e-06, "MEAN_MOTION_DDOT": 0}, "tle": {"line1": "1 64876U 25155A   25340.94094576  .00000161  00000+0  93200-4 0  9992", "line2": "2 64876  98.5776 302.9714 0002348  69.1102 291.0327 14.21438785 19093"}}, "geometry": {"type": "Point", "coordinates": [45.857181970064445, -81.2233403803071]}}, {"type": "Feature", "properties": {"norad_id": 64877, "name": "IONOSFERA-M 4", "group": "resource", "lat": 81.33522384373484, "lon": -138.42637114671643, "alt_km": 811.8827582490267, "timestamp": "2025-12-07T16:44:03.568925+00:00", "meta": {"OBJECT_NAME": "IONOSFERA-M 4", "OBJECT_ID": "2025-155B", "EPOCH": "2025-12-06T21:44:06.006048", "MEAN_MOTION": 14.21439866, "ECCENTRICITY": 0.00017088, "INCLINATION": 98.5774, "RA_OF_ASC_NODE": 302.8567, "ARG_OF_PERICENTER": 69.4589, "MEAN_ANOMALY": 290.6772, "EPHEMERIS_TYPE": 0, "CLASSIFICATION_TYPE": "U", "NORAD_CAT_ID": 64877, "ELEMENT_SET_NO": 999, "REV_AT_EPOCH": 1908, "BSTAR": 9.9442362e-05, "MEAN_MOTION_DOT": 1.75e-06, "MEAN_MOTION_DDOT": 0}, "tle": {"line1": "1 64877U 25155B   25340.90562507  .00000175  00000+0  99442-4 0  9992", "line2": "2 64877  98.5774 302.8567 0001708  69.4589 290.6772 14.21439866 19087"}}, "geometry": {"type": "Point", "coordinates": [-138.42637114671643, 81.33522384373484]}}, {"type": "Feature", "properties": {"norad_id": 64899, "name": "MICROCARB", "group": "resource", "lat": 45.32411535185359, "lon": 48.94309925232913, "alt_km": 655.4871373917322, "timestamp": "2025-12-07T16:44:03.568936+00:00", "meta": {"OBJECT_NAME": "MICROCARB", "OBJECT_ID": "2025-156A", "EPOCH": "2025-12-06T22:34:51.325248", "MEAN_MOTION": 14.72042372, "ECCENTRICITY": 0.0016761, "INCLINATION": 98.0029, "RA_OF_ASC_NODE": 56.3791, "ARG_OF_PERICENTER": 162.6689, "MEAN_ANOMALY": 197.5093, "EPHEMERIS_TYPE": 0, "CLASSIFICATION_TYPE": "U", "NORAD_CAT_ID": 64899, "ELEMENT_SET_NO": 999, "REV_AT_EPOCH": 1968, "BSTAR": 0.00022760206, "MEAN_MOTION_DOT": 1.383e-05, "MEAN_MOTION_DDOT": 0}, "tle": {"line1": "1 64899U 25156A   25340.94087182  .00001383  00000+0  22760-3 0  9992", "line2": "2 64899  98.0029  56.3791 0016761 162.6689 197.5093 14.72042372 19686"}}, "geometry": {"type": "Point", "coordinates": [48.94309925232913, 45.32411535185359]}}, {"type": "Feature", "properties": {"norad_id": 64900, "name": "CO3D 3", "group": "resource", "lat": -63.91482308948556, "lon": 73.60650748063539, "alt_km": 513.3208053160406, "timestamp": "2025-12-07T16:44:03.568946+00:00", "meta": {"OBJECT_NAME": "CO3D 3", "OBJECT_ID": "2025-156B", "EPOCH": "2025-12-06T22:03:45.810144", "MEAN_MOTION": 15.20202224, "ECCENTRICITY": 0.00013138, "INCLINATION": 97.4345, "RA_OF_ASC_NODE": 57.3703, "ARG_OF_PERICENTER": 113.5876, "MEAN_ANOMALY": 246.5497, "EPHEMERIS_TYPE": 0, "CLASSIFICATION_TYPE": "U", "NORAD_CAT_ID": 64900, "ELEMENT_SET_NO": 999, "REV_AT_EPOCH": 2032, "BSTAR": 0.00047306705, "MEAN_MOTION_DOT": 0.00010187, "MEAN_MOTION_DDOT": 0}, "tle": {"line1": "1 64900U 25156B   25340.91928021  .00010187  00000+0  47307-3 0  9994", "line2": "2 64900  97.4345  57.3703 0001313 113.5876 246.5497 15.20202224 20321"}}, "geometry": {"type": "Point", "coordinates": [73.60650748063539, -63.91482308948556]}}]}